[{"OBJECT_NAME":"STARLINK-6310","OBJECT_ID":"2023-065AG","EPOCH":"2026-03-09T22:00:01.999584","MEAN_MOTION":15.13128188,"ECCENTRICITY":0.00017884,"INCLINATION":42.9996,"RA_OF_ASC_NODE":195.8795,"ARG_OF_PERICENTER":265.7074,"MEAN_ANOMALY":13.4046,"EPHEMERIS_TYPE":0,"CLASSIFICATION_TYPE":"U","NORAD_CAT_ID":56533,"ELEMENT_SET_NO":999,"REV_AT_EPOCH":547,"BSTAR":0.0040477251,"MEAN_MOTION_DOT":0.00073522,"MEAN_MOTION_DDOT":0},{"OBJECT_NAME":"CZ-6A DEB","OBJECT_ID":"2024-140ZM","EPOCH":"2026-03-09T08:08:19.885920","MEAN_MOTION":14.97554426,"ECCENTRICITY":0.01813088,"INCLINATION":90.2734,"RA_OF_ASC_NODE":12.4689,"ARG_OF_PERICENTER":116.477,"MEAN_ANOMALY":245.5188,"EPHEMERIS_TYPE":0,"CLASSIFICATION_TYPE":"U","NORAD_CAT_ID":61455,"ELEMENT_SET_NO":999,"REV_AT_EPOCH":8308,"BSTAR":0.00078895456,"MEAN_MOTION_DOT":0.00012969,"MEAN_MOTION_DDOT":0}]
